CCSDS_OEM_VERS = 2.0
CREATION_DATE = 2024-10-04T11:00:55.376000000
ORIGINATOR = NONE

META_START
OBJECT_NAME = _SCPACE_OEM
OBJECT_ID = 1
CENTER_NAME = EARTH
REF_FRAME = EME2000
TIME_SYSTEM = UTC
START_TIME = 2024-10-03T00:00:00.000000000
STOP_TIME = 2024-10-04T08:00:00.000000000
INTERPOLATION = LAGRANGE
INTERPOLATION_DEGREE = 8
META_STOP

2024-10-03T05:42:00.000000000  4.774249974170209e+03  1.645627082344766e+03 -4.933613028389932e+03 -4.384885726483398e+00 -3.063592582068009e+00 -5.269043343249130e+00
2024-10-03T05:43:00.000000000  4.501623639551332e+03  1.458588696735645e+03 -5.239478802327828e+03 -4.699543380361027e+00 -3.168891462699648e+00 -4.923034425653531e+00
2024-10-03T05:44:00.000000000  4.210689468474759e+03  1.265618469174215e+03 -5.523979475323922e+03 -4.994943983946373e+00 -3.261255739856369e+00 -4.557118170521822e+00
2024-10-03T05:45:00.000000000  3.902638569785724e+03  1.067503579168241e+03 -5.785965299896997e+03 -5.269910507276546e+00 -3.340323665675985e+00 -4.172797159937088e+00
2024-10-03T05:46:00.000000000  3.578730363244324e+03  8.650514376392415e+02 -6.024378799178174e+03 -5.523350538582288e+00 -3.405787562297788e+00 -3.771643562552916e+00
2024-10-03T05:47:00.000000000  3.240286818035993e+03  6.590860062032862e+02 -6.238258841565170e+03 -5.754260430282505e+00 -3.457394775190798e+00 -3.355292288242665e+00
2024-10-03T05:48:00.000000000  2.888687621189782e+03  4.504449154897686e+02 -6.426744005478209e+03 -5.961728163119419e+00 -3.494948106856677e+00 -2.925434801765443e+00
2024-10-03T05:49:00.000000000  2.525364294569630e+03  2.399759091117403e+02 -6.589075921050704e+03 -6.144936267494435e+00 -3.518306331246627e+00 -2.483811948088942e+00
2024-10-03T05:50:00.000000000  2.151794539804732e+03  2.853353896337535e+01 -6.724601975068531e+03 -6.303164026665503e+00 -3.527384346302496e+00 -2.032207413788916e+00
2024-10-03T05:51:00.000000000  1.769496273871471e+03 -1.830242621132126e+02 -6.832777713888167e+03 -6.435789755006111e+00 -3.522153047211140e+00 -1.572441128043147e+00
2024-10-03T05:52:00.000000000  1.380021754465037e+03 -3.938394578353208e+02 -6.913168802564510e+03 -6.542292813483871e+00 -3.502639091554598e+00 -1.106362749598015e+00
2024-10-03T05:53:00.000000000  9.849515452487582e+02 -6.030571924318300e+02 -6.965452569051485e+03 -6.622255366217519e+00 -3.468924855867834e+00 -6.358447491733689e-01
2024-10-03T05:54:00.000000000  5.858876891283821e+02 -8.098294788751379e+02 -6.989419105661604e+03 -6.675363564114270e+00 -3.421148143047154e+00 -1.627743505282893e-01
2024-10-03T05:55:00.000000000  1.844486274506727e+02 -1.013317890212383e+03 -6.984972267802576e+03 -6.701407322282701e+00 -3.359501294323776e+00  3.109519715189019e-01
2024-10-03T05:56:00.000000000 -2.177380498822731e+02 -1.212697316613020e+03 -6.952129738248924e+03 -6.700281333021413e+00 -3.284230378271105e+00  7.834355186308357e-01
2024-10-03T05:57:00.000000000 -6.190418732064686e+02 -1.407159131760174e+03 -6.891022804555171e+03 -6.671986192174888e+00 -3.195634561711289e+00  1.252781998257221e+00
2024-10-03T05:58:00.000000000 -1.017835363018200e+03 -1.595914117239868e+03 -6.801896259848358e+03 -6.616628239546352e+00 -3.094064954108688e+00  1.717108509600323e+00
2024-10-03T05:59:00.000000000 -1.412500479838663e+03 -1.778195610350157e+03 -6.685107400286277e+03 -6.534418598324891e+00 -2.979923118748928e+00  2.174550141191335e+00
2024-10-03T06:00:00.000000000 -1.801435200669126e+03 -1.953262625447746e+03 -6.541124627119698e+03 -6.425672940275741e+00 -2.853660050780488e+00  2.623265694138929e+00
2024-10-03T06:01:00.000000000 -2.183059313778864e+03 -2.120402569255843e+03 -6.370526076482715e+03 -6.290812066394960e+00 -2.715775504065523e+00  3.061444112024032e+00
2024-10-03T06:02:00.000000000 -2.555821004636538e+03 -2.278934271597920e+03 -6.173997474283785e+03 -6.130360812784898e+00 -2.566816068027618e+00  3.487312910049790e+00
2024-10-03T06:03:00.000000000 -2.918203349459649e+03 -2.428210837010835e+03 -5.952329300917510e+03 -5.944945664621958e+00 -2.407372678553498e+00  3.899145256827283e+00
2024-10-03T06:04:00.000000000 -3.268729831130620e+03 -2.567622035334100e+03 -5.706414260046218e+03 -5.735293247877790e+00 -2.238079086100628e+00  4.295265157109020e+00
2024-10-03T06:05:00.000000000 -3.605970488264808e+03 -2.696596901197787e+03 -5.437243935989138e+03 -5.502228906038855e+00 -2.059610261923011e+00  4.674054487192077e+00
2024-10-03T06:06:00.000000000 -3.928547807976182e+03 -2.814606159264683e+03 -5.145905064123479e+03 -5.246674255698254e+00 -1.872680054620945e+00  5.033960438954646e+00
2024-10-03T06:07:00.000000000 -4.235142287751484e+03 -2.921164425369228e+03 -4.833575500958799e+03 -4.969644052374790e+00 -1.678038451678544e+00  5.373502206098297e+00
2024-10-03T06:08:00.000000000 -4.524498144085162e+03 -3.015832358787381e+03 -4.501519494368958e+03 -4.672242542665083e+00 -1.476468739763094e+00  5.691277555830028e+00
2024-10-03T06:09:00.000000000 -4.795428330216223e+03 -3.098218537928074e+03 -4.151083063590169e+03 -4.355659731841870e+00 -1.268784658683586e+00  5.985968928242726e+00
2024-10-03T06:10:00.000000000 -5.046819448713339e+03 -3.167981176870941e+03 -3.783688932885444e+03 -4.021167035095726e+00 -1.055827025647536e+00  6.256349265439368e+00
2024-10-03T06:11:00.000000000 -5.277637137353665e+03 -3.224829665982205e+03 -3.400830077144207e+03 -3.670111957179823e+00 -8.384599833541111e-01  6.501287639810050e+00
2024-10-03T06:12:00.000000000 -5.486929956065089e+03 -3.268525920549476e+03 -3.004064294851981e+03 -3.303914091798892e+00 -6.175683870654249e-01  6.719753999407996e+00
2024-10-03T06:13:00.000000000 -5.673833625407242e+03 -3.298885470158976e+03 -2.595008117079736e+03 -2.924060226162738e+00 -3.940545404490479e-01  6.910824961433631e+00
2024-10-03T06:14:00.000000000 -5.837574929935925e+03 -3.315778384811845e+03 -2.175330119416221e+03 -2.532097779501506e+00 -1.688339053578934e-01  7.073689291513649e+00
2024-10-03T06:15:00.000000000 -5.977475135526341e+03 -3.319129997326982e+03 -1.746744391097443e+03 -2.129627929357009e+00  5.716896466496291e-02  7.207651411939335e+00
2024-10-03T06:16:00.000000000 -6.092953046425694e+03 -3.308921200691699e+03 -1.311002607885000e+03 -1.718298507817497e+00  2.830244822810544e-01  7.312134746252987e+00
2024-10-03T06:17:00.000000000 -6.183527567878549e+03 -3.285188764975388e+03 -8.698877130040755e+02 -1.299798467661487e+00  5.078014018427830e-01  7.386684352207518e+00
2024-10-03T06:18:00.000000000 -6.248819956031018e+03 -3.248025268243314e+03 -4.252062179105857e+02 -8.758509743107055e-01  7.305711835117504e-01  7.430970260576836e+00
2024-10-03T06:19:00.000000000 -6.288555787209361e+03 -3.197578855190497e+03  2.121919804498562e+01 -4.482060735541405e-01  9.504121402777285e-01  7.444790070208171e+00
2024-10-03T06:20:00.000000000 -6.302566181791505e+03 -3.134052642098728e+03  4.675576974870876e+02 -1.863206143685947e-02  1.166413757957897e+00  7.428071183467567e+00
2024-10-03T06:21:00.000000000 -6.290788691971840e+03 -3.057703931559343e+03  9.119780391028198e+02  4.110933747754072e-01  1.377680920791715e+00  7.380871508968945e+00
2024-10-03T06:22:00.000000000 -6.253267605677521e+03 -2.968843165033530e+03  1.352656348533593e+03  8.391918878983113e-01  1.583338326180596e+00  7.303378900829632e+00
2024-10-03T06:23:00.000000000 -6.190153725520197e+03 -2.867832596572616e+03  1.787783898519172e+03  1.263892809356840e+00  1.782534758600240e+00  7.195909371792870e+00
2024-10-03T06:24:00.000000000 -6.101703635825242e+03 -2.755084724259893e+03  2.215574737128549e+03  1.683440566096986e+00  1.974446540512089e+00  7.058904691291363e+00
2024-10-03T06:25:00.000000000 -5.988278649686297e+03 -2.631060563397141e+03  2.634273160314276e+03  2.096101572293965e+00  2.158280587410225e+00  6.892930525988907e+00
2024-10-03T06:26:00.000000000 -5.850343129683991e+03 -2.496267641639168e+03  3.042161199530897e+03  2.500172275295848e+00  2.333278237084181e+00  6.698674253202419e+00
2024-10-03T06:27:00.000000000 -5.688462931568366e+03 -2.351258161740418e+03  3.437565017617411e+03  2.893985859216105e+00  2.498718171980271e+00  6.476940994851509e+00
2024-10-03T06:28:00.000000000 -5.503302686620210e+03 -2.196626403415849e+03  3.818862728364171e+03  3.275918444953608e+00  2.653918623138224e+00  6.228649899414413e+00
2024-10-03T06:29:00.000000000 -5.295622238922193e+03 -2.033005770456433e+03  4.184492019134227e+03  3.644397061957014e+00  2.798240681405711e+00  5.954832567443382e+00
2024-10-03T06:30:00.000000000 -5.066274499334298e+03 -1.861066960544593e+03  4.532954952321919e+03  3.997908547178618e+00  2.931092574799179e+00  5.656629422253507e+00
2024-10-03T06:31:00.000000000 -4.816201420369342e+03 -1.681514837303099e+03  4.862824753968246e+03  4.335007827030234e+00  3.051933102266229e+00  5.335278957136071e+00
2024-10-03T06:32:00.000000000 -4.546429284263621e+03 -1.495085007136932e+03  5.172752081911230e+03  4.654319988038689e+00  3.160271647549146e+00  4.992109010773953e+00
2024-10-03T06:33:00.000000000 -4.258064766023376e+03 -1.302541033039266e+03  5.461469816766225e+03  4.954542339940820e+00  3.255668509525163e+00  4.628535169494011e+00
2024-10-03T06:34:00.000000000 -3.952290349521023e+03 -1.104671264223998e+03  5.727798317930954e+03  5.234452001828681e+00  3.337737750653453e+00  4.246057154002033e+00
2024-10-03T06:35:00.000000000 -3.630359381626623e+03 -9.022855751990086e+02  5.970650198322680e+03  5.492912627316645e+00  3.406149195058191e+00  3.846250245259855e+00
2024-10-03T06:36:00.000000000 -3.293590678188991e+03 -6.962119483176471e+02  6.189034674455292e+03  5.728877618320329e+00  3.460628781575456e+00  3.430756930187483e+00
2024-10-03T06:37:00.000000000 -2.943363045746788e+03 -4.872930864570336e+02  6.382061408002890e+03  5.941392980783895e+00  3.500959154831009e+00  3.001280798806810e+00
2024-10-03T06:38:00.000000000 -2.581109571492557e+03 -2.763829597124238e+02  6.548943945322622e+03  6.129600998674376e+00  3.526980641775438e+00  2.559579932151682e+00
